GOES 19
1 60133U 24119A   26119.02396101 -.00000252  00000+0  00000+0 0  9999
2 60133   0.0126  69.5841 0000649  17.0586  63.7793  1.00272490  6470
